STARLINK-37938          
1 69568U 26135Y   26190.83335647 -.02478400  00000+0 -32357-1 0  9995
2 69568  97.2851 219.1740 0001960  73.4477 101.6879 15.62192841  4959
STARLINK-37924          
1 69569U 26135Z   26190.83335647 -.02569171  00000+0 -22487-1 0  9995
2 69569  97.2846 219.2137 0001735  91.5680 186.9605 15.72126852  4955
SHIJIAN-31 (SJ-31)      
1 69570U 26136A   26190.34403693  .00000091  00000+0  00000+0 0  9993
2 69570  63.4849 353.7973 6940360 171.8206 212.3117  1.92223614   516
CZ-3B R/B               
1 69571U 26136B   26189.56489608  .00365163  15685-4  51739-3 0  9999
2 69571  63.4352 351.8117 7280943 171.4849 216.6278  2.34984402   521
GUOWANG OBJECT A        
1 69572U 26137A   26190.29722163 -.00000108  00000+0  30909-4 0  9992
2 69572  49.9993 167.3772 0012558 299.0924  60.8717 13.89812596  3096
GUOWANG OBJECT B        
1 69573U 26137B   26189.93480712 -.00000231  00000+0 -68965-4 0  9994
2 69573  50.0021 168.7914 0011859 296.5997  63.3686 13.89803750  3051
GUOWANG OBJECT C        
1 69574U 26137C   26190.65276043 -.00000057  00000+0  72323-4 0  9994
2 69574  49.9962 165.9102 0011905 300.6112  59.3612 13.89815350  3153
GUOWANG OBJECT D        
1 69575U 26137D   26190.65162699 -.00000168  00000+0 -17667-4 0  9990
2 69575  49.9953 165.9027 0011087 299.2996  60.6794 13.89827781  3151
GUOWANG OBJECT E        
1 69576U 26137E   26190.65064700 -.00000214  00000+0 -55274-4 0  9993
2 69576  50.0036 165.9215 0011264 302.1342  57.8463 13.89825186  3150
GUOWANG OBJECT F        
1 69577U 26137F   26190.64981928 -.00000215  00000+0 -55984-4 0  9992
2 69577  50.0025 165.9144 0010850 302.1836  57.8010 13.89809494  3150
GUOWANG OBJECT G        
1 69578U 26137G   26190.79276060 -.00000144  00000+0  18585-5 0  9990
2 69578  49.9977 165.3173 0010811 302.3991  57.5861 13.89795124  3178
GUOWANG OBJECT H        
1 69579U 26137H   26190.72005440 -.00000177  00000+0 -25512-4 0  9990
2 69579  49.9987 165.6124 0010259 305.3735  54.6204 13.89776129  3166
GUOWANG OBJECT J        
1 69580U 26137J   26178.27848690  .00000022  00000+0  13174-3 0  9997
2 69580  49.9961 215.0979 0011832 257.3150 102.6427 13.91997107  1436
CZ-12 R/B               
1 69581U 26137K   26190.59891358  .00000039  00000+0  10246-3 0  9991
2 69581  49.9883 162.9053 0077458 190.5644 169.3639 14.11693566  3178
CENTISPACE-1 GROUP 05 O*
1 69582U 26138A   26190.73946375 -.00000185  00000+0 -16318-4 0  9990
2 69582  55.1385 197.8960 0011000 332.1966  27.8419 14.15470737  3217
CENTISPACE-1 GROUP 05 O*
1 69583U 26138B   26190.73656266 -.00000269  00000+0 -58741-4 0  9997
2 69583  55.1381 197.8793 0009974 332.5035  27.5410 14.15651021  3211
CENTISPACE-1 GROUP 05 O*
1 69584U 26138C   26190.73520635 -.00000298  00000+0 -73039-4 0  9997
2 69584  55.1386 197.8808 0009894 334.1680  25.8799 14.15734964  3218
CENTISPACE-1 GROUP 05 O*
1 69585U 26138D   26190.73243258 -.00000381  00000+0 -11507-3 0  9995
2 69585  55.1386 197.8577 0009475 333.2407  26.8078 14.15921127  3214
CENTISPACE-1 GROUP 05 O*
1 69586U 26138E   26189.74306377 -.00000391  00000+0 -11972-3 0  9994
2 69586  55.1380 201.5111 0009123 331.3196  28.7275 14.15988570  3079
CENTISPACE-1 GROUP 05 O*
1 69587U 26138F   26190.02644949 -.00000383  00000+0 -11617-3 0  9995
2 69587  55.1382 200.4745 0009041 336.2346  23.8210 14.15911467  3114
CENTISPACE-1 GROUP 05 O*
1 69588U 26138G   26190.72978444 -.00000420  00000+0 -13401-3 0  9998
2 69588  55.1383 197.8494 0008373 337.6553  22.4056 14.16075314  3215
SPACEMOBILE-008         
1 69589U 26139A   26190.27299870  .00000479  00000+0  43935-4 0  9997
2 69589  52.9939 162.2948 0004746  42.3763 317.7594 15.12796930  3321
SPACEMOBILE-009         
1 69590U 26139B   26189.94419122  .00000456  00000+0  42786-4 0  9993
2 69590  52.9929 163.7993 0004980  36.9056 323.2277 15.12689610  3272
SPACEMOBILE-010         
1 69591U 26139C   26190.60738347  .00000292  00000+0  33614-4 0  9990
2 69591  52.9935 160.8181 0004902  29.8087 330.3182 15.12521494  3387
KUIPER-00423            
1 69592U 26140A   26190.59648354  .00014852  00000+0  39302-3 0  9995
2 69592  51.8798 290.1674 0013534 249.9966 109.9564 15.38521864  4686
KUIPER-00428            
1 69593U 26140B   26190.62905080  .00021976  00000+0  60880-3 0  9992
2 69593  51.8785 290.3784 0007912  10.5757 349.5395 15.36866443  4687
KUIPER-00481            
1 69594U 26140C   26190.60550360  .00021418  00000+0  57343-3 0  9999
2 69594  51.8762 290.2199 0011479 259.5521 100.4172 15.37908718  4689
KUIPER-00490            
1 69595U 26140D   26190.61509425  .00027748  00000+0  74088-3 0  9994
2 69595  51.8755 290.2779 0006902 317.2698  42.7751 15.37879385  4686
KUIPER-00493            
1 69596U 26140E   26190.63333398  .00010836  00000+0  30886-3 0  9999
2 69596  51.8791 290.4059 0007628  19.8243 340.3039 15.36581851  4680
KUIPER-00496            
1 69597U 26140F   26190.58408277  .00012701  00000+0  38545-3 0  9996
2 69597  51.8793 290.8160 0010381  35.5353 324.6322 15.34412193  4676
