OBJECT_NAME,OBJECT_ID,EPOCH,MEAN_MOTION,ECCENTRICITY,INCLINATION,RA_OF_ASC_NODE,ARG_OF_PERICENTER,MEAN_ANOMALY,EPHEMERIS_TYPE,CLASSIFICATION_TYPE,NORAD_CAT_ID,ELEMENT_SET_NO,REV_AT_EPOCH,BSTAR,MEAN_MOTION_DOT,MEAN_MOTION_DDOT
STARLINK-37938,2026-135Y,2026-07-09T20:00:01.999008,15.62192841,.000196,97.2851,219.1740,73.4477,101.6879,0,U,69568,999,495,-.32357E-1,-.24784E-1,0
STARLINK-37924,2026-135Z,2026-07-09T20:00:01.999008,15.72126852,.0001735,97.2846,219.2137,91.5680,186.9605,0,U,69569,999,495,-.22487E-1,-.2569171E-1,0
SHIJIAN-31 (SJ-31),2026-136A,2026-07-09T08:15:24.790752,1.92223614,.694036,63.4849,353.7973,171.8206,212.3117,0,U,69570,999,51,0,.91E-6,0
CZ-3B R/B,2026-136B,2026-07-08T13:33:27.021312,2.34984402,.72809433,63.4352,351.8117,171.4849,216.6278,0,U,69571,999,52,.51739401E-3,.365163E-2,.15685045E-4
GUOWANG OBJECT A,2026-137A,2026-07-09T07:07:59.948832,13.89812596,.00125585,49.9993,167.3772,299.0924,60.8717,0,U,69572,999,309,.30909438E-4,-.108E-5,0
GUOWANG OBJECT B,2026-137B,2026-07-08T22:26:07.335168,13.89803750,.00118599,50.0021,168.7914,296.5997,63.3686,0,U,69573,999,305,-.68965044E-4,-.231E-5,0
GUOWANG OBJECT C,2026-137C,2026-07-09T15:39:58.501152,13.89815350,.0011905,49.9962,165.9102,300.6112,59.3612,0,U,69574,999,315,.72323E-4,-.57E-6,0
GUOWANG OBJECT D,2026-137D,2026-07-09T15:38:20.571936,13.89827781,.0011087,49.9953,165.9027,299.2996,60.6794,0,U,69575,999,315,-.17667E-4,-.168E-5,0
GUOWANG OBJECT E,2026-137E,2026-07-09T15:36:55.900800,13.89825186,.0011264,50.0036,165.9215,302.1342,57.8463,0,U,69576,999,315,-.55274E-4,-.214E-5,0
GUOWANG OBJECT F,2026-137F,2026-07-09T15:35:44.385792,13.89809494,.001085,50.0025,165.9144,302.1836,57.8010,0,U,69577,999,315,-.55984E-4,-.215E-5,0
GUOWANG OBJECT G,2026-137G,2026-07-09T19:01:34.515840,13.89795124,.0010811,49.9977,165.3173,302.3991,57.5861,0,U,69578,999,317,.18585E-5,-.144E-5,0
GUOWANG OBJECT H,2026-137H,2026-07-09T17:16:52.700160,13.89776129,.0010259,49.9987,165.6124,305.3735,54.6204,0,U,69579,999,316,-.25512E-4,-.177E-5,0
GUOWANG OBJECT J,2026-137J,2026-06-27T06:41:01.268160,13.91997107,.0011832,49.9961,215.0979,257.3150,102.6427,0,U,69580,999,143,.13174E-3,.22E-6,0
CZ-12 R/B,2026-137K,2026-07-09T14:22:26.133312,14.11693566,.0077458,49.9883,162.9053,190.5644,169.3639,0,U,69581,999,317,.10246E-3,.39E-6,0
CENTISPACE-1 GROUP 05 OBJECT A,2026-138A,2026-07-09T17:44:49.668000,14.15470737,.0011,55.1385,197.8960,332.1966,27.8419,0,U,69582,999,321,-.16318E-4,-.185E-5,0
CENTISPACE-1 GROUP 05 OBJECT B,2026-138B,2026-07-09T17:40:39.013824,14.15651021,.0009974,55.1381,197.8793,332.5035,27.5410,0,U,69583,999,321,-.58741E-4,-.269E-5,0
CENTISPACE-1 GROUP 05 OBJECT C,2026-138C,2026-07-09T17:38:41.828640,14.15734964,.0009894,55.1386,197.8808,334.1680,25.8799,0,U,69584,999,321,-.73039E-4,-.298E-5,0
CENTISPACE-1 GROUP 05 OBJECT D,2026-138D,2026-07-09T17:34:42.174912,14.15921127,.0009475,55.1386,197.8577,333.2407,26.8078,0,U,69585,999,321,-.11507E-3,-.381E-5,0
CENTISPACE-1 GROUP 05 OBJECT E,2026-138E,2026-07-08T17:50:00.709728,14.15988570,.0009123,55.1380,201.5111,331.3196,28.7275,0,U,69586,999,307,-.11971673E-3,-.391E-5,0
CENTISPACE-1 GROUP 05 OBJECT F,2026-138F,2026-07-09T00:38:05.235936,14.15911467,.00090412,55.1382,200.4745,336.2346,23.8210,0,U,69587,999,311,-.11616871E-3,-.383E-5,0
CENTISPACE-1 GROUP 05 OBJECT G,2026-138G,2026-07-09T17:30:53.375616,14.16075314,.0008373,55.1383,197.8494,337.6553,22.4056,0,U,69588,999,321,-.13401E-3,-.42E-5,0
SPACEMOBILE-008,2026-139A,2026-07-09T06:33:07.087680,15.12796930,.00047468,52.9939,162.2948,42.3763,317.7594,0,U,69589,999,332,.43934622E-4,.479E-5,0
SPACEMOBILE-009,2026-139B,2026-07-08T22:39:38.121408,15.12689610,.00049803,52.9929,163.7993,36.9056,323.2277,0,U,69590,999,327,.42785832E-4,.456E-5,0
SPACEMOBILE-010,2026-139C,2026-07-09T14:34:37.931808,15.12521494,.0004902,52.9935,160.8181,29.8087,330.3182,0,U,69591,999,338,.33614E-4,.292E-5,0
KUIPER-00423,2026-140A,2026-07-09T14:18:56.177856,15.38521864,.0013534,51.8798,290.1674,249.9966,109.9564,0,U,69592,999,468,.39302E-3,.14852E-3,0
KUIPER-00428,2026-140B,2026-07-09T15:05:49.989120,15.36866443,.0007912,51.8785,290.3784,10.5757,349.5395,0,U,69593,999,468,.6088E-3,.21976E-3,0
KUIPER-00481,2026-140C,2026-07-09T14:31:55.511040,15.37908718,.0011479,51.8762,290.2199,259.5521,100.4172,0,U,69594,999,468,.57343E-3,.21418E-3,0
KUIPER-00490,2026-140D,2026-07-09T14:45:44.143200,15.37879385,.0006902,51.8755,290.2779,317.2698,42.7751,0,U,69595,999,468,.74088E-3,.27748E-3,0
KUIPER-00493,2026-140E,2026-07-09T15:12:00.055872,15.36581851,.0007628,51.8791,290.4059,19.8243,340.3039,0,U,69596,999,468,.30886E-3,.10836E-3,0
KUIPER-00496,2026-140F,2026-07-09T14:01:04.751328,15.34412193,.0010381,51.8793,290.8160,35.5353,324.6322,0,U,69597,999,467,.38545E-3,.12701E-3,0
